[{"OBJECT_NAME":"OBJECT H","OBJECT_ID":"2023-091H","EPOCH":"2026-03-09T22:34:46.487712","MEAN_MOTION":15.26380881,"ECCENTRICITY":0.00117854,"INCLINATION":97.5166,"RA_OF_ASC_NODE":131.4381,"ARG_OF_PERICENTER":104.1062,"MEAN_ANOMALY":256.1487,"EPHEMERIS_TYPE":0,"CLASSIFICATION_TYPE":"U","NORAD_CAT_ID":57173,"ELEMENT_SET_NO":999,"REV_AT_EPOCH":14915,"BSTAR":0.00056321781,"MEAN_MOTION_DOT":0.00014617,"MEAN_MOTION_DDOT":0},{"OBJECT_NAME":"STARLINK-35343","OBJECT_ID":"2026-003A","EPOCH":"2026-03-09T11:53:22.093440","MEAN_MOTION":15.27593914,"ECCENTRICITY":0.00016716,"INCLINATION":43.0002,"RA_OF_ASC_NODE":228.2092,"ARG_OF_PERICENTER":271.3939,"MEAN_ANOMALY":88.6721,"EPHEMERIS_TYPE":0,"CLASSIFICATION_TYPE":"U","NORAD_CAT_ID":67334,"ELEMENT_SET_NO":999,"REV_AT_EPOCH":879,"BSTAR":0.0012290218,"MEAN_MOTION_DOT":0.00033727,"MEAN_MOTION_DDOT":0}]
